NOAA 1                  
1 04793U 70106A   26062.75839314 -.00000026  00000+0  10670-3 0  9998
2 04793 101.3525 102.0386 0031685 192.4898 290.6234 12.54049147527474
NOAA 2 (ITOS-D)         
1 06235U 72082A   26062.68122314 -.00000032  00000+0  88374-4 0  9997
2 06235 102.0168  80.0662 0004000  16.5610  98.3303 12.53211619441737
NOAA 3                  
1 06920U 73086A   26062.63529995 -.00000033  00000+0  98786-4 0  9993
2 06920 102.2909  75.5548 0006188 320.3490 157.8450 12.40391593368813
NOAA 4                  
1 07529U 74089A   26062.65958343 -.00000042  00000+0  25942-4 0  9992
2 07529 102.0074  74.3262 0009166  40.1247  69.2102 12.53201525346305
NOAA 5                  
1 09057U 76077A   26062.54825957 -.00000038  00000+0  58322-4 0  9994
2 09057 102.2951  48.0231 0009764 171.8383 302.4349 12.37828193241408
TIROS N                 
1 11060U 78096A   26062.67848851  .00000227  00000+0  12799-3 0  9992
2 11060  98.4639  88.4649 0010402 182.1762 177.9371 14.19335292663786
NOAA 6                  
1 11416U 79057A   26062.69630262  .00000422  00000+0  16209-3 0  9999
2 11416  98.5758  92.8861 0009406 205.1023 154.9706 14.35428356435828
NOAA 7                  
1 12553U 81059A   26062.73305331  .00000086  00000+0  63797-4 0  9999
2 12553  98.8072 130.8343 0011034 205.0547 155.0094 14.17771863309805
NOAA 8                  
1 13923U 83022A   26062.60593116  .00000204  00000+0  96927-4 0  9992
2 13923  98.7373  75.3832 0014335 203.6155 156.4370 14.29764075235981
NOAA 9                  
1 15427U 84123A   26062.72490721  .00000145  00000+0  95370-4 0  9992
2 15427  99.1101  86.8671 0013708 289.8193 183.1605 14.17036595128485
NOAA 10                 
1 16969U 86073A   26062.53236189  .00000219  00000+0  10398-3 0  9993
2 16969  98.6994  55.9376 0011210 308.8224 162.0514 14.29141199 54329
NOAA 11                 
1 19531U 88089A   26062.70888751  .00000079  00000+0  61835-4 0  9994
2 19531  98.6089  11.9513 0010063 238.2075 121.8119 14.15819191932555
NOAA 12                 
1 21263U 91032A   26062.72220225  .00000165  00000+0  86207-4 0  9995
2 21263  98.6146  52.8166 0013263 341.2865  18.7826 14.26715220809922
NOAA 13                 
1 22739U 93050A   26062.77504476  .00000159  00000+0  10660-3 0  9996
2 22739  98.6926  10.6875 0010544  72.2140 288.0183 14.13633985678488
NOAA 14                 
1 23455U 94089A   26062.74085764  .00000103  00000+0  75029-4 0  9996
2 23455  98.5012  37.2386 0010097  32.6740 327.5057 14.14653686608292
NOAA 15                 
1 25338U 98030A   26062.73920739  .00000194  00000+0  97154-4 0  9990
2 25338  98.5167  86.1758 0009195 299.7029  60.3236 14.27109779446254
NOAA 16                 
1 26536U 00055A   26062.79522402  .00000142  00000+0  96321-4 0  9990
2 26536  98.4707  82.6050 0009378 240.8536 119.1700 14.13896217608831
